[{"OBJECT_NAME":"ONEWEB-0391","OBJECT_ID":"2021-132C","EPOCH":"2026-03-09T21:03:44.229600","MEAN_MOTION":13.17649662,"ECCENTRICITY":0.00019766,"INCLINATION":87.9151,"RA_OF_ASC_NODE":25.5986,"ARG_OF_PERICENTER":54.8205,"MEAN_ANOMALY":305.3111,"EPHEMERIS_TYPE":0,"CLASSIFICATION_TYPE":"U","NORAD_CAT_ID":50471,"ELEMENT_SET_NO":999,"REV_AT_EPOCH":20500,"BSTAR":0.00011468789,"MEAN_MOTION_DOT":5.7e-7,"MEAN_MOTION_DDOT":0},{"OBJECT_NAME":"CZ-4C DEB","OBJECT_ID":"2018-034G","EPOCH":"2026-03-09T22:03:57.590784","MEAN_MOTION":13.44715724,"ECCENTRICITY":0.02634938,"INCLINATION":63.3999,"RA_OF_ASC_NODE":358.8366,"ARG_OF_PERICENTER":7.4142,"MEAN_ANOMALY":353.0662,"EPHEMERIS_TYPE":0,"CLASSIFICATION_TYPE":"U","NORAD_CAT_ID":43281,"ELEMENT_SET_NO":999,"REV_AT_EPOCH":32432,"BSTAR":0.00028053451,"MEAN_MOTION_DOT":1.12e-6,"MEAN_MOTION_DDOT":0}]
